{"type":"FeatureCollection","features":[{"type":"Feature","geometry":{"geodesic":false,"type":"MultiPolygon","coordinates":[[[[73.85240107683555,18.459258655377365],[73.85243326334373,18.459258655377365],[73.85243326334373,18.45929936268117],[73.85240107683555,18.45929936268117],[73.85240107683555,18.459258655377365]]],[[[73.85242253450767,18.459141621825115],[73.85245472101585,18.459141621825115],[73.85245472101585,18.459161975492112],[73.85242253450767,18.459161975492112],[73.85242253450767,18.459141621825115]]],[[[73.85253518728629,18.459192505988078],[73.85256200937644,18.459192505988078],[73.85256200937644,18.459233213307567],[73.85253518728629,18.459233213307567],[73.85253518728629,18.459192505988078]]],[[[73.85247617868797,18.459034765033813],[73.85249763636008,18.459034765033813],[73.85249763636008,18.45905511871348],[73.85247617868797,18.45905511871348],[73.85247617868797,18.459034765033813]]],[[[73.85258346704856,18.459100914483894],[73.85259956030265,18.459100914483894],[73.85259956030265,18.459116179737993],[73.85258346704856,18.459116179737993],[73.85258346704856,18.459100914483894]]],[[[73.85472386984245,18.459436749760265],[73.85473996309653,18.459436749760265],[73.85473996309653,18.459441838168495],[73.85472386984245,18.459441838168495],[73.85472386984245,18.459436749760265]]],[[[73.85470928980135,18.4593794306729],[73.85471599532389,18.4593794306729],[73.85471599532389,18.45939215169743],[73.85470928980135,18.45939215169743],[73.85470928980135,18.4593794306729]]],[[[73.85474013520502,18.4593794306729],[73.85474818183206,18.4593794306729],[73.85474818183206,18.459389607492596],[73.85474013520502,18.459389607492596],[73.85474013520502,18.4593794306729]]],[[[73.85466771556162,18.459416321641445],[73.85467442108416,18.459416321641445],[73.85467442108416,18.459436675275846],[73.85466771556162,18.459436675275846],[73.85466771556162,18.459416321641445]]],[[[73.85479780269884,18.458487684504036],[73.85482462478899,18.458487684504036],[73.85482462478899,18.45851567090215],[73.85479780269884,18.45851567090215],[73.85479780269884,18.458487684504036]]],[[[73.85483267141603,18.458418990598414],[73.8548434002521,18.458418990598414],[73.8548434002521,18.458434255913144],[73.85483267141603,18.458434255913144],[73.85483267141603,18.458418990598414]]],[[[73.85495068861269,18.459935338565142],[73.85500969721102,18.459935338565142],[73.85500969721102,18.45997604570847],[73.85495068861269,18.45997604570847],[73.85495068861269,18.459935338565142]]],[[[73.85281565023683,18.4592992881967],[73.85285320116304,18.4592992881967],[73.85285320116304,18.459365437544843],[73.85281565023683,18.459365437544843],[73.85281565023683,18.4592992881967]]],[[[73.85280612579004,18.459089205954957],[73.85283965340273,18.459089205954957],[73.85283965340273,18.459123552777097],[73.85280612579004,18.459123552777097],[73.85280612579004,18.459089205954957]]],[[[73.85268542638437,18.459162988008845],[73.85270017853395,18.459162988008845],[73.85270017853395,18.45917825325742],[73.85268542638437,18.45917825325742],[73.85268542638437,18.459162988008845]]],[[[73.85264519324915,18.45918843008905],[73.85265994539873,18.45918843008905],[73.85265994539873,18.459208783750487],[73.85264519324915,18.459208783750487],[73.85264519324915,18.45918843008905]]],[[[73.85261300674097,18.459264756306997],[73.85263044109956,18.459264756306997],[73.85263044109956,18.45928510995939],[73.85261300674097,18.45928510995939],[73.85261300674097,18.459264756306997]]],[[[73.85257143250124,18.45928892626895],[73.8525821613373,18.45928892626895],[73.8525821613373,18.459306735712413],[73.85257143250124,18.459306735712413],[73.85257143250124,18.45928892626895]]],[[[73.852618371159,18.45930546360938],[73.8526358055176,18.45930546360938],[73.8526358055176,18.459311824124498],[73.852618371159,18.459311824124498],[73.852618371159,18.45930546360938]]],[[[73.85271224847452,18.45867831566093],[73.85274979940073,18.45867831566093],[73.85274979940073,18.458719023102386],[73.85271224847452,18.458719023102386],[73.85271224847452,18.45867831566093]]],[[[73.85266933313028,18.458530751104767],[73.85269883742944,18.458530751104767],[73.85269883742944,18.458546016409574],[73.85266933313028,18.458546016409574],[73.85266933313028,18.458530751104767]]],[[[73.85480673982288,18.458246692623256],[73.8548644073167,18.458246692623256],[73.8548644073167,18.458312842377044],[73.85480673982288,18.458312842377044],[73.85480673982288,18.458246692623256]]],[[[73.85490866376544,18.458494754068493],[73.85495157910968,18.458494754068493],[73.85495157910968,18.458583801679346],[73.85490866376544,18.458583801679346],[73.85490866376544,18.458494754068493]]],[[[73.8550523827498,18.45776969413913],[73.85516503552843,18.45776969413913],[73.85516503552843,18.4578778238316],[73.8550523827498,18.4578778238316],[73.8550523827498,18.45776969413913]]],[[[73.85522136191774,18.45777351048238],[73.8553769300406,18.45777351048238],[73.8553769300406,18.457871463263324],[73.85522136191774,18.457871463263324],[73.85522136191774,18.45777351048238]]],[[[73.8546192059939,18.45778368739729],[73.85478818516184,18.45778368739729],[73.85478818516184,18.457860014239863],[73.8546192059939,18.457860014239863],[73.8546192059939,18.45778368739729]]],[[[73.85426491082816,18.457741630050158],[73.85449021638541,18.457741630050158],[73.85449021638541,18.45781795691144],[73.85426491082816,18.45781795691144],[73.85426491082816,18.457741630050158]]],[[[73.85543542249673,18.457795356901368],[73.85566206915848,18.457795356901368],[73.85566206915848,18.457876772193394],[73.85543542249673,18.457876772193394],[73.85543542249673,18.457795356901368]]]]},"id":"0","properties":{}}]}